STARLINK-5585           
1 57333U 23099F   26183.09538683  .00000298  00000+0  20356-4 0  9994
2 57333  43.0031 326.2731 0001153 277.8236  82.2485 15.27574124163572
STARLINK-5589           
1 57334U 23099G   26183.10308371 -.00009084  00000+0 -32061-3 0  9995
2 57334  43.0039 326.3259 0001479 272.0548  88.0135 15.27616649163576
STARLINK-6316           
1 57335U 23099H   26183.64467353  .00000134  00000+0  14400-4 0  9994
2 57335  43.0025 320.1100 0001784 274.5230  85.5418 15.27579608163695
STARLINK-6320           
1 57336U 23099J   26183.11514881  .00002407  00000+0  97018-4 0  9997
2 57336  43.0087 322.9904 0001800 276.3614  83.7033 15.27570279163611
STARLINK-6322           
1 57337U 23099K   26183.11080870  .00000825  00000+0  39487-4 0  9992
2 57337  43.0025 326.3860 0001131 277.4437  82.6286 15.27577127163577
STARLINK-6374           
1 57338U 23099L   26183.11337614  .00000371  00000+0  22999-4 0  9990
2 57338  43.0027 326.4041 0000852 284.8624  75.2134 15.27577570163573
STARLINK-6332           
1 57339U 23099M   26183.10694553 -.00000295  00000+0 -11917-5 0  9994
2 57339  43.0027 326.3561 0001029 281.6930  78.3806 15.27573619163572
STARLINK-6321           
1 57340U 23099N   26183.12878970  .00001701  00000+0  71331-4 0  9991
2 57340  43.0051 326.5127 0002317 285.5755  74.4840 15.27588890163572
STARLINK-6377           
1 57341U 23099P   26183.48593294 -.00000060  00000+0  73328-5 0  9991
2 57341  43.0010 327.4536 0001432 256.5595 103.5097 15.27573477163594
STARLINK-6375           
1 57342U 23099Q   26183.10487261  .00000996  00000+0  45724-4 0  9992
2 57342  43.0024 322.9355 0001073 277.3008  82.7721 15.27578849163613
STARLINK-6379           
1 57343U 23099R   26183.12108645 -.00000396  00000+0 -48416-5 0  9999
2 57343  43.0061 326.4590 0001785 269.0703  90.9944 15.27584620163572
STARLINK-6380           
1 57344U 23099S   26183.46971995  .00001522  00000+0  64821-4 0  9990
2 57344  43.0027 323.9110 0001501 274.8473  85.2207 15.27584688163639
STARLINK-6373           
1 57345U 23099T   26183.48335780  .00000066  00000+0  11907-4 0  9998
2 57345  43.0017 327.4288 0001273 245.6737 114.3982 15.27576844163593
STARLINK-6359           
1 57346U 23099U   26183.64595474 -.00000641  00000+0 -13765-4 0  9990
2 57346  43.0012 320.1133 0001540 288.8514  71.2170 15.27585987163696
STARLINK-6378           
1 57347U 23099V   26183.09746354  .00000170  00000+0  15712-4 0  9994
2 57347  43.0026 329.6953 0001224 276.2915  83.7797 15.27576322163530
STARLINK-6372           
1 57348U 23099W   26183.11129663  .00002165  00000+0  88208-4 0  9992
2 57348  43.0067 322.9761 0001790 266.8188  93.2459 15.27573433163614
STARLINK-6376           
1 57349U 23099X   26183.08816996  .00002397  00000+0  96548-4 0  9994
2 57349  43.0031 322.8054 0001077 286.0145  74.0588 15.27591561164337
STARLINK-6362           
1 57350U 23099Y   26183.09169863  .00007097  00000+0  26732-3 0  9990
2 57350  43.0059 315.7733 0001913 273.3553  86.7080 15.27564049163680
STARLINK-6331           
1 57351U 23099Z   26183.07274750  .00000536  00000+0  29014-4 0  9999
2 57351  43.0011 322.6904 0001225 269.6906  90.3805 15.27579637163610
STARLINK-6297           
1 57352U 23099AA  26183.08525566  .00000677  00000+0  34134-4 0  9990
2 57352  43.0038 315.7253 0001586 280.9829  79.0844 15.27579036163698
STARLINK-6324           
1 57353U 23099AB  26183.09459011  .00000154  00000+0  15111-4 0  9997
2 57353  43.0035 322.8522 0001266 267.0119  93.0587 15.27579458163617
STARLINK-6293           
1 57354U 23099AC  26183.08268506 -.00000221  00000+0  14959-5 0  9990
2 57354  43.0041 315.7002 0001663 277.9968  82.0695 15.27581013163698
STARLINK-6276           
1 57355U 23099AD  26183.62891135  .00000462  00000+0  26304-4 0  9993
2 57355  42.9998 312.9239 0001073 286.7475  73.3259 15.27581680163773
STARLINK-6355           
1 57356U 23099AE  26183.09682170  .00001589  00000+0  67270-4 0  9990
2 57356  43.0061 315.8047 0002205 272.2489  87.8110 15.27577826163693
STARLINK-5600           
1 57357U 23099AF  26183.65574953 -.00000046  00000+0  78307-5 0  9994
2 57357  43.0017 312.2640 0000750 272.7557  87.3208 15.27577745163782
STARLINK-6299           
1 57358U 23099AG  26183.63518863  .00000228  00000+0  17823-4 0  9997
2 57358  43.0035 312.1176 0001417 265.4888  94.5802 15.27578646164527
STARLINK-6347           
1 57359U 23099AH  26183.08782605  .00000959  00000+0  44388-4 0  9991
2 57359  43.0056 315.7421 0001617 294.8606  65.2077 15.27580185163696
STARLINK-6348           
1 57360U 23099AJ  26183.64290164 -.00000540  00000+0 -10090-4 0  9990
2 57360  43.0037 312.1689 0000770 273.6480  86.4283 15.27577471163786
STARLINK-6340           
1 57361U 23099AK  26183.62762055  .00000146  00000+0  14850-4 0  9990
2 57361  43.0042 312.9047 0001761 276.2101  83.8550 15.27583062163779
STARLINK-6343           
1 57362U 23099AL  26183.64675725 -.00000704  00000+0 -16074-4 0  9992
2 57362  43.0037 312.1932 0001019 277.4440  82.6296 15.27571510163773
